0 COSMOS 1326
1 12981U 81116G   13282.06391536 -.00000025  00000-0 -81990-4 0  3081
2 12981 073.9808 148.1631 0082487 005.5774 165.5603 12.30802179412218
0 COSMOS 1326
1 12981U 81116G   13284.08282666  .00000034  00000-0  41056-3 0  3095
2 12981 073.9804 145.5675 0082517 002.6696 111.1238 12.30801806412462
0 COSMOS 1326
1 12981U 81116G   13286.50605491  .00000017  00000-0  26923-3 0  3108
2 12981 073.9799 142.4520 0082556 359.1837 048.1583 12.30802202412766
0 COSMOS 1326
1 12981U 81116G   13288.79963100  .00000006  00000-0  18157-3 0  3114
2 12981 073.9795 139.5031 0082593 355.8706 130.7373 12.30802326413049
0 COSMOS 1326
1 12981U 81116G   13291.07369826 -.00000045  00000-0 -25120-3 0  3128
2 12981 073.9794 136.5792 0082625 352.5930 126.8662 12.30802823413328
0 COSMOS 1326
1 12981U 81116G   13293.50356184 -.00000006  00000-0  80540-4 0  3136
2 12981 073.9795 133.4549 0082661 349.0896 093.3191 12.30802473413626
0 COSMOS 1326
1 12981U 81116G   13295.52307272 -.00000021  00000-0 -49481-4 0  3142
2 12981 073.9794 130.8582 0082680 346.1891 041.5299 12.30802536413878
